COMMENT,ORIGINATOR,NORAD_CAT_ID,OBJECT_NAME,OBJECT_TYPE,CLASSIFICATION_TYPE,INTLDES,EPOCH,EPOCH_MICROSECONDS,MEAN_MOTION,ECCENTRICITY,INCLINATION,RA_OF_ASC_NODE,ARG_OF_PERICENTER,MEAN_ANOMALY,EPHEMERIS_TYPE,ELEMENT_SET_NO,REV_AT_EPOCH,BSTAR,MEAN_MOTION_DOT,MEAN_MOTION_DDOT,FILE,TLE_LINE0,TLE_LINE1,TLE_LINE2,OBJECT_ID,OBJECT_NUMBER,SEMIMAJOR_AXIS,PERIOD,APOGEE,PERIGEE,DECAYED,date
GENERATED VIA SPACETRACK.ORG API,18 SPCS,48884,SPACEBEE-101,PAYLOAD,U,21059F,2023/1/1 3:53,456576,15.20148759,0.0008185,97.5754,135.5264,134.2769,225.9139,0,999,8391,0.00083747,0.00018091,0,3728232,0 SPACEBEE-101,1 48884U 21059F   23001.16243584  .00018091  00000-0  83747-3 0  9999,2 48884  97.5754 135.5264 0008185 134.2769 225.9139 15.20148759 83915,2021-059F,48884,6883.529,94.728,511.028,499.759,0,2023/1/1
GENERATED VIA SPACETRACK.ORG API,18 SPCS,48884,SPACEBEE-101,PAYLOAD,U,21059F,2023/1/1 8:38,243008,15.20156252,0.0008212,97.5754,135.7248,133.4637,226.7282,0,999,8394,0.00082527,0.0001783,0,3728759,0 SPACEBEE-101,1 48884U 21059F   23001.35991022  .00017830  00000-0  82527-3 0  9992,2 48884  97.5754 135.7248 0008212 133.4637 226.7282 15.20156252 83943,2021-059F,48884,6883.506,94.727,511.024,499.718,0,2023/1/2
GENERATED VIA SPACETRACK.ORG API,18 SPCS,48884,SPACEBEE-101,PAYLOAD,U,21059F,2023/1/2 8:20,48512,15.20191062,0.0008246,97.5752,136.7167,130.3452,229.8505,0,999,8409,0.00082451,0.00017832,0,3729414,0 SPACEBEE-101,1 48884U 21059F   23002.34726908  .00017832  00000-0  82451-3 0  9999,2 48884  97.5752 136.7167 0008246 130.3452 229.8505 15.20191062 84097,2021-059F,48884,6883.401,94.725,510.942,499.59,0,2023/1/3
GENERATED VIA SPACETRACK.ORG API,18 SPCS,48884,SPACEBEE-101,PAYLOAD,U,21059F,2023/1/2 8:20,48512,15.20191062,0.0008246,97.5752,136.7167,130.3452,229.8505,0,999,8409,0.00082451,0.00017832,0,3729583,0 SPACEBEE-101,1 48884U 21059F   23002.34726908  .00017832  00000-0  82451-3 0  9999,2 48884  97.5752 136.7167 0008246 130.3452 229.8505 15.20191062 84097,2021-059F,48884,6883.401,94.725,510.942,499.59,0,2023/1/4
GENERATED VIA SPACETRACK.ORG API,18 SPCS,48884,SPACEBEE-101,PAYLOAD,U,21059F,2023/1/3 8:01,100960,15.20220804,0.0008235,97.5753,137.7085,127.3902,232.8083,0,999,8424,0.00075614,0.00016358,0,3730926,0 SPACEBEE-101,1 48884U 21059F   23003.33460765  .00016358  00000-0  75614-3 0  9990,2 48884  97.5753 137.7085 0008235 127.3902 232.8083 15.20220804 84241,2021-059F,48884,6883.311,94.723,510.844,499.508,0,2023/1/5
GENERATED VIA SPACETRACK.ORG API,18 SPCS,48884,SPACEBEE-101,PAYLOAD,U,21059F,2023/1/3 14:20,115904,15.20226222,0.000823,97.5752,137.9731,126.5706,233.6287,0,999,8428,0.00068672,0.00014849,0,3730782,0 SPACEBEE-101,1 48884U 21059F   23003.59789486  .00014849  00000-0  68672-3 0  9991,2 48884  97.5752 137.9731 0008230 126.5706 233.6287 15.20226222 84287,2021-059F,48884,6883.295,94.723,510.825,499.495,0,2023/1/6
GENERATED VIA SPACETRACK.ORG API,18 SPCS,48884,SPACEBEE-101,PAYLOAD,U,21059F,2023/1/4 14:02,849376,15.20267805,0.0008191,97.5753,138.9651,123.2746,236.9274,0,999,8443,0.0010275,0.00022302,0,3731823,0 SPACEBEE-101,1 48884U 21059F   23004.58520659  .00022302  00000-0  10275-2 0  9994,2 48884  97.5753 138.9651 0008191 123.2746 236.9274 15.20267805 84435,2021-059F,48884,6883.169,94.72,510.672,499.396,0,2023/1/7
GENERATED VIA SPACETRACK.ORG API,18 SPCS,48884,SPACEBEE-101,PAYLOAD,U,21059F,2023/1/4 14:02,849376,15.20267805,0.0008191,97.5753,138.9651,123.2746,236.9274,0,999,8443,0.0010275,0.00022302,0,3731956,0 SPACEBEE-101,1 48884U 21059F   23004.58520659  .00022302  00000-0  10275-2 0  9994,2 48884  97.5753 138.9651 0008191 123.2746 236.9274 15.20267805 84435,2021-059F,48884,6883.169,94.72,510.672,499.396,0,2023/1/8
GENERATED VIA SPACETRACK.ORG API,18 SPCS,48884,SPACEBEE-101,PAYLOAD,U,21059F,2023/1/5 2:40,220384,15.20287631,0.0008234,97.5757,139.4942,121.5214,238.6826,0,999,8451,0.00094046,0.00020414,0,3732939,0 SPACEBEE-101,1 48884U 21059F   23005.11176181  .00020414  00000-0  94046-3 0  9992,2 48884  97.5757 139.4942 0008234 121.5214 238.6826 15.20287631 84517,2021-059F,48884,6883.109,94.719,510.642,499.307,0,2023/1/9
GENERATED VIA SPACETRACK.ORG API,18 SPCS,48884,SPACEBEE-101,PAYLOAD,U,21059F,2023/1/5 15:19,887232,15.20308736,0.000827,97.5758,140.0232,119.7099,240.496,0,999,8459,0.00086615,0.00018803,0,3732963,0 SPACEBEE-101,1 48884U 21059F   23005.63830888  .00018803  00000-0  86615-3 0  9992,2 48884  97.5758 140.0232 0008270 119.7099 240.4960 15.20308736 84596,2021-059F,48884,6883.046,94.718,510.603,499.218,0,2023/1/10
GENERATED VIA SPACETRACK.ORG API,18 SPCS,48884,SPACEBEE-101,PAYLOAD,U,21059F,2023/1/5 15:19,887232,15.20308736,0.000827,97.5758,140.0232,119.7099,240.496,0,999,8459,0.00086615,0.00018803,0,3733123,0 SPACEBEE-101,1 48884U 21059F   23005.63830888  .00018803  00000-0  86615-3 0  9992,2 48884  97.5758 140.0232 0008270 119.7099 240.4960 15.20308736 84596,2021-059F,48884,6883.046,94.718,510.603,499.218,0,2023/1/11
GENERATED VIA SPACETRACK.ORG API,18 SPCS,48884,SPACEBEE-101,PAYLOAD,U,21059F,2023/1/6 8:41,498816,15.20344263,0.0008327,97.5762,140.7508,117.037,243.1716,0,999,8470,0.00095994,0.00020874,0,3734892,0 SPACEBEE-101,1 48884U 21059F   23006.36229744  .00020874  00000-0  95994-3 0  9997,2 48884  97.5762 140.7508 0008327 117.0370 243.1716 15.20344263 84707,2021-059F,48884,6882.938,94.715,510.535,499.072,0,2023/1/12
GENERATED VIA SPACETRACK.ORG API,18 SPCS,48884,SPACEBEE-101,PAYLOAD,U,21059F,2023/1/6 8:41,498816,15.20344263,0.0008327,97.5762,140.7508,117.037,243.1716,0,999,8470,0.00095994,0.00020874,0,3735161,0 SPACEBEE-101,1 48884U 21059F   23006.36229744  .00020874  00000-0  95994-3 0  9997,2 48884  97.5762 140.7508 0008327 117.0370 243.1716 15.20344263 84707,2021-059F,48884,6882.938,94.715,510.535,499.072,0,2023/1/13
GENERATED VIA SPACETRACK.ORG API,18 SPCS,48884,SPACEBEE-101,PAYLOAD,U,21059F,2023/1/7 19:26,59488,15.20403139,0.000824,97.5764,142.2055,112.848,247.3626,0,999,8492,0.00092985,0.0002025,0,3735243,0 SPACEBEE-101,1 48884U 21059F   23007.81023217  .00020250  00000-0  92985-3 0  9990,2 48884  97.5764 142.2055 0008240 112.8480 247.3626 15.20403139 84920,2021-059F,48884,6882.761,94.712,510.297,498.954,0,2023/1/14
GENERATED VIA SPACETRACK.ORG API,18 SPCS,48884,SPACEBEE-101,PAYLOAD,U,21059F,2023/1/7 19:26,59488,15.20403139,0.000824,97.5764,142.2055,112.848,247.3626,0,999,8492,0.00092985,0.0002025,0,3735488,0 SPACEBEE-101,1 48884U 21059F   23007.81023217  .00020250  00000-0  92985-3 0  9990,2 48884  97.5764 142.2055 0008240 112.8480 247.3626 15.20403139 84920,2021-059F,48884,6882.761,94.712,510.297,498.954,0,2023/1/15
GENERATED VIA SPACETRACK.ORG API,18 SPCS,48884,SPACEBEE-101,PAYLOAD,U,21059F,2023/1/8 8:04,406848,15.20421532,0.0008273,97.5764,142.7349,110.9357,249.2764,0,999,8500,0.00086984,0.00018945,0,3736235,0 SPACEBEE-101,1 48884U 21059F   23008.33674082  .00018945  00000-0  86984-3 0  9990,2 48884  97.5764 142.7349 0008273 110.9357 249.2764 15.20421532 85000,2021-059F,48884,6882.705,94.711,510.264,498.876,0,2023/1/16
GENERATED VIA SPACETRACK.ORG API,18 SPCS,48884,SPACEBEE-101,PAYLOAD,U,21059F,2023/1/9 3:02,705760,15.20455557,0.0008268,97.5765,143.5285,108.3755,251.838,0,999,8512,0.0010336,0.00022559,0,3736626,0 SPACEBEE-101,1 48884U 21059F   23009.12648965  .00022559  00000-0  10336-2 0  9992,2 48884  97.5765 143.5285 0008268 108.3755 251.8380 15.20455557 85126,2021-059F,48884,6882.602,94.708,510.158,498.777,0,2023/1/17
GENERATED VIA SPACETRACK.ORG API,18 SPCS,48884,SPACEBEE-101,PAYLOAD,U,21059F,2023/1/9 7:46,75072,15.2046262,0.000825,97.5766,143.7268,107.6373,252.5763,0,999,8515,0.00094323,0.00020579,0,3737263,0 SPACEBEE-101,1 48884U 21059F   23009.32392448  .00020579  00000-0  94323-3 0  9995,2 48884  97.5766 143.7268 0008250 107.6373 252.5763 15.20462620 85154,2021-059F,48884,6882.581,94.708,510.124,498.768,0,2023/1/18
GENERATED VIA SPACETRACK.ORG API,18 SPCS,48884,SPACEBEE-101,PAYLOAD,U,21059F,2023/1/9 14:05,406784,15.20472286,0.0008276,97.5765,143.9911,107.0896,253.1246,0,999,8519,0.00091434,0.00019951,0,3737712,0 SPACEBEE-101,1 48884U 21059F   23009.58716906  .00019951  00000-0  91434-3 0  9994,2 48884  97.5765 143.9911 0008276 107.0896 253.1246 15.20472286 85198,2021-059F,48884,6882.552,94.707,510.113,498.721,0,2023/1/19
GENERATED VIA SPACETRACK.ORG API,18 SPCS,48884,SPACEBEE-101,PAYLOAD,U,21059F,2023/1/10 7:27,454560,15.20503873,0.0008287,97.5768,144.7186,104.549,255.6665,0,999,8530,0.00095013,0.00020756,0,3738731,0 SPACEBEE-101,1 48884U 21059F   23010.31108165  .00020756  00000-0  95013-3 0  9991,2 48884  97.5768 144.7186 0008287 104.5490 255.6665 15.20503873 85300,2021-059F,48884,6882.457,94.705,510.025,498.618,0,2023/1/20
GENERATED VIA SPACETRACK.ORG API,18 SPCS,48884,SPACEBEE-101,PAYLOAD,U,21059F,2023/1/10 7:27,454560,15.20503873,0.0008287,97.5768,144.7186,104.549,255.6665,0,999,8530,0.00095013,0.00020756,0,3739038,0 SPACEBEE-101,1 48884U 21059F   23010.31108165  .00020756  00000-0  95013-3 0  9991,2 48884  97.5768 144.7186 0008287 104.5490 255.6665 15.20503873 85300,2021-059F,48884,6882.457,94.705,510.025,498.618,0,2023/1/21
GENERATED VIA SPACETRACK.ORG API,18 SPCS,48884,SPACEBEE-101,PAYLOAD,U,21059F,2023/1/10 15:21,37600,15.20517947,0.0008309,97.5768,145.0494,103.2785,256.9377,0,999,8535,0.00095798,0.00020937,0,3739267,0 SPACEBEE-101,1 48884U 21059F   23010.64012775  .00020937  00000-0  95798-3 0  9999,2 48884  97.5768 145.0494 0008309 103.2785 256.9377 15.20517947 85350,2021-059F,48884,6882.414,94.705,509.998,498.561,0,2023/1/22
GENERATED VIA SPACETRACK.ORG API,18 SPCS,48884,SPACEBEE-101,PAYLOAD,U,21059F,2023/1/11 8:44,111136,15.20554756,0.0008361,97.5767,145.777,100.7163,259.5014,0,999,8546,0.0010984,0.00024052,0,3739772,0 SPACEBEE-101,1 48884U 21059F   23011.36401749  .00024052  00000-0  10984-2 0  9997,2 48884  97.5767 145.7770 0008361 100.7163 259.5014 15.20554756 85461,2021-059F,48884,6882.303,94.702,509.922,498.414,0,2023/1/23
